{"type": "FeatureCollection", "features": [ {"type": "Feature", "properties": {"norad_id": 33726, "name": "FENGYUN 1C DEB", "group": "fengyun-1c-debris", "lat": -72.6051099895112, "lon": -107.60493576936149, "alt_km": 986.2674990238738, "timestamp": "2025-12-02T21:34:01.558129+00:00", "meta": {"OBJECT_NAME": "FENGYUN 1C DEB", "OBJECT_ID": "1999-025DHP", "EPOCH": "2025-12-02T06:55:34.688352", "MEAN_MOTION": 14.1428324, "ECCENTRICITY": 0.0193236, "INCLINATION": 98.6385, "RA_OF_ASC_NODE": 100.8334, "ARG_OF_PERICENTER": 60.93, "MEAN_ANOMALY": 330.2977, "EPHEMERIS_TYPE": 0, "CLASSIFICATION_TYPE": "U", "NORAD_CAT_ID": 33726, "ELEMENT_SET_NO": 999, "REV_AT_EPOCH": 91784, "BSTAR": 0.00043106, "MEAN_MOTION_DOT": 9.43e-06, "MEAN_MOTION_DDOT": 0}, "tle": {"line1": "1 33726U 99025DHP 25336.28859593  .00000943  00000+0  43106-3 0  9996", "line2": "2 33726  98.6385 100.8334 0193236  60.9300 330.2977 14.14283240917842"}}, "geometry": {"type": "Point", "coordinates": [-107.60493576936149, -72.6051099895112]}}, {"type": "Feature", "properties": {"norad_id": 33728, "name": "FENGYUN 1C DEB", "group": "fengyun-1c-debris", "lat": -46.95380844211173, "lon": 41.1539852923391, "alt_km": 553.3681840386516, "timestamp": "2025-12-02T21:34:01.558138+00:00", "meta": {"OBJECT_NAME": "FENGYUN 1C DEB", "OBJECT_ID": "1999-025DHR", "EPOCH": "2025-12-01T21:38:37.344768", "MEAN_MOTION": 14.92395752, "ECCENTRICITY": 0.01478107, "INCLINATION": 98.9818, "RA_OF_ASC_NODE": 30.2685, "ARG_OF_PERICENTER": 249.9818, "MEAN_ANOMALY": 108.5432, "EPHEMERIS_TYPE": 0, "CLASSIFICATION_TYPE": "U", "NORAD_CAT_ID": 33728, "ELEMENT_SET_NO": 999, "REV_AT_EPOCH": 98138, "BSTAR": 0.00067922704, "MEAN_MOTION_DOT": 8.521e-05, "MEAN_MOTION_DDOT": 0}, "tle": {"line1": "1 33728U 99025DHR 25335.90182112  .00008521  00000+0  67923-3 0  9995", "line2": "2 33728  98.9818  30.2685 0147810 249.9818 108.5432 14.92395752981383"}}, "geometry": {"type": "Point", "coordinates": [41.1539852923391, -46.95380844211173]}}, {"type": "Feature", "properties": {"norad_id": 33730, "name": "FENGYUN 1C DEB", "group": "fengyun-1c-debris", "lat": 5.038446206363078, "lon": -145.49957855118487, "alt_km": 704.713337160113, "timestamp": "2025-12-02T21:34:01.558148+00:00", "meta": {"OBJECT_NAME": "FENGYUN 1C DEB", "OBJECT_ID": "1999-025DHT", "EPOCH": "2025-11-27T20:57:44.098848", "MEAN_MOTION": 14.63096088, "ECCENTRICITY": 0.00406689, "INCLINATION": 99.058, "RA_OF_ASC_NODE": 28.1817, "ARG_OF_PERICENTER": 57.0936, "MEAN_ANOMALY": 303.4166, "EPHEMERIS_TYPE": 0, "CLASSIFICATION_TYPE": "U", "NORAD_CAT_ID": 33730, "ELEMENT_SET_NO": 999, "REV_AT_EPOCH": 95462, "BSTAR": 0.0017238126, "MEAN_MOTION_DOT": 8.913e-05, "MEAN_MOTION_DDOT": 0}, "tle": {"line1": "1 33730U 99025DHT 25331.87342707  .00008913  00000+0  17238-2 0  9996", "line2": "2 33730  99.0580  28.1817 0040668  57.0936 303.4166 14.63096088954624"}}, "geometry": {"type": "Point", "coordinates": [-145.49957855118487, 5.038446206363078]}}, {"type": "Feature", "properties": {"norad_id": 33731, "name": "FENGYUN 1C DEB", "group": "fengyun-1c-debris", "lat": -69.79886728761483, "lon": 25.772309714417165, "alt_km": 1002.6646433363585, "timestamp": "2025-12-02T21:34:01.558159+00:00", "meta": {"OBJECT_NAME": "FENGYUN 1C DEB", "OBJECT_ID": "1999-025DHU", "EPOCH": "2025-11-28T07:46:14.335392", "MEAN_MOTION": 13.95266632, "ECCENTRICITY": 0.01296296, "INCLINATION": 99.4454, "RA_OF_ASC_NODE": 354.1889, "ARG_OF_PERICENTER": 95.0981, "MEAN_ANOMALY": 266.4989, "EPHEMERIS_TYPE": 0, "CLASSIFICATION_TYPE": "U", "NORAD_CAT_ID": 33731, "ELEMENT_SET_NO": 999, "REV_AT_EPOCH": 90248, "BSTAR": 0.00078625858, "MEAN_MOTION_DOT": 1.095e-05, "MEAN_MOTION_DDOT": 0}, "tle": {"line1": "1 33731U 99025DHU 25332.32377703  .00001095  00000+0  78626-3 0  9995", "line2": "2 33731  99.4454 354.1889 0129629  95.0981 266.4989 13.95266632902483"}}, "geometry": {"type": "Point", "coordinates": [25.772309714417165, -69.79886728761483]}}, {"type": "Feature", "properties": {"norad_id": 33733, "name": "FENGYUN 1C DEB", "group": "fengyun-1c-debris", "lat": 80.71576103612928, "lon": -16.879026959561337, "alt_km": 801.3630389171203, "timestamp": "2025-12-02T21:34:01.558169+00:00", "meta": {"OBJECT_NAME": "FENGYUN 1C DEB", "OBJECT_ID": "1999-025DHW", "EPOCH": "2025-12-01T05:07:55.247232", "MEAN_MOTION": 14.3062472, "ECCENTRICITY": 0.0081329, "INCLINATION": 99.0999, "RA_OF_ASC_NODE": 60.0061, "ARG_OF_PERICENTER": 202.8537, "MEAN_ANOMALY": 213.8436, "EPHEMERIS_TYPE": 0, "CLASSIFICATION_TYPE": "U", "NORAD_CAT_ID": 33733, "ELEMENT_SET_NO": 999, "REV_AT_EPOCH": 90283, "BSTAR": 0.0047064, "MEAN_MOTION_DOT": 0.00012718, "MEAN_MOTION_DDOT": 0}, "tle": {"line1": "1 33733U 99025DHW 25335.21383388  .00012718  00000+0  47064-2 0  9999", "line2": "2 33733  99.0999  60.0061 0081329 202.8537 213.8436 14.30624720902837"}}, "geometry": {"type": "Point", "coordinates": [-16.879026959561337, 80.71576103612928]}}, {"type": "Feature", "properties": {"norad_id": 33737, "name": "FENGYUN 1C DEB", "group": "fengyun-1c-debris", "lat": -9.7076695650677, "lon": -9.812065247857495, "alt_km": 935.6074601758291, "timestamp": "2025-12-02T21:34:01.558179+00:00", "meta": {"OBJECT_NAME": "FENGYUN 1C DEB", "OBJECT_ID": "1999-025DJA", "EPOCH": "2025-12-02T12:21:10.111104", "MEAN_MOTION": 14.02935488, "ECCENTRICITY": 0.0128495, "INCLINATION": 98.3389, "RA_OF_ASC_NODE": 171.2738, "ARG_OF_PERICENTER": 312.2838, "MEAN_ANOMALY": 100.7012, "EPHEMERIS_TYPE": 0, "CLASSIFICATION_TYPE": "U", "NORAD_CAT_ID": 33737, "ELEMENT_SET_NO": 999, "REV_AT_EPOCH": 88597, "BSTAR": 0.0014546, "MEAN_MOTION_DOT": 2.387e-05, "MEAN_MOTION_DDOT": 0}, "tle": {"line1": "1 33737U 99025DJA 25336.51470036  .00002387  00000+0  14546-2 0  9994", "line2": "2 33737  98.3389 171.2738 0128495 312.2838 100.7012 14.02935488885972"}}, "geometry": {"type": "Point", "coordinates": [-9.812065247857495, -9.7076695650677]}}, {"type": "Feature", "properties": {"norad_id": 33738, "name": "FENGYUN 1C DEB", "group": "fengyun-1c-debris", "lat": -51.13125491490936, "lon": -154.60740827972825, "alt_km": 1036.9424133642706, "timestamp": "2025-12-02T21:34:01.558190+00:00", "meta": {"OBJECT_NAME": "FENGYUN 1C DEB", "OBJECT_ID": "1999-025DJB", "EPOCH": "2025-12-02T03:34:07.425984", "MEAN_MOTION": 13.99504773, "ECCENTRICITY": 0.01853263, "INCLINATION": 99.1539, "RA_OF_ASC_NODE": 36.1825, "ARG_OF_PERICENTER": 50.5718, "MEAN_ANOMALY": 5.2798, "EPHEMERIS_TYPE": 0, "CLASSIFICATION_TYPE": "U", "NORAD_CAT_ID": 33738, "ELEMENT_SET_NO": 999, "REV_AT_EPOCH": 89088, "BSTAR": 0.00054954534, "MEAN_MOTION_DOT": 8.85e-06, "MEAN_MOTION_DDOT": 0}, "tle": {"line1": "1 33738U 99025DJB 25336.14869706  .00000885  00000+0  54955-3 0  9990", "line2": "2 33738  99.1539  36.1825 0185326  50.5718   5.2798 13.99504773890880"}}, "geometry": {"type": "Point", "coordinates": [-154.60740827972825, -51.13125491490936]}}, {"type": "Feature", "properties": {"norad_id": 33740, "name": "FENGYUN 1C DEB", "group": "fengyun-1c-debris", "lat": 2.0188627453372168, "lon": 170.4212358625007, "alt_km": 853.0717352967476, "timestamp": "2025-12-02T21:34:01.558200+00:00", "meta": {"OBJECT_NAME": "FENGYUN 1C DEB", "OBJECT_ID": "1999-025DJD", "EPOCH": "2025-12-02T07:07:31.709856", "MEAN_MOTION": 14.12313529, "ECCENTRICITY": 0.0001679, "INCLINATION": 98.6878, "RA_OF_ASC_NODE": 349.5292, "ARG_OF_PERICENTER": 147.5645, "MEAN_ANOMALY": 212.5631, "EPHEMERIS_TYPE": 0, "CLASSIFICATION_TYPE": "U", "NORAD_CAT_ID": 33740, "ELEMENT_SET_NO": 999, "REV_AT_EPOCH": 89999, "BSTAR": 0.00018109, "MEAN_MOTION_DOT": 2.91e-06, "MEAN_MOTION_DDOT": 0}, "tle": {"line1": "1 33740U 99025DJD 25336.29689479  .00000291  00000+0  18109-3 0  9998", "line2": "2 33740  98.6878 349.5292 0001679 147.5645 212.5631 14.12313529899999"}}, "geometry": {"type": "Point", "coordinates": [170.4212358625007, 2.0188627453372168]}}, {"type": "Feature", "properties": {"norad_id": 33741, "name": "FENGYUN 1C DEB", "group": "fengyun-1c-debris", "lat": -52.13656597057582, "lon": -97.85729997886511, "alt_km": 957.2102698218869, "timestamp": "2025-12-02T21:34:01.558210+00:00", "meta": {"OBJECT_NAME": "FENGYUN 1C DEB", "OBJECT_ID": "1999-025DJE", "EPOCH": "2025-12-01T11:45:13.004640", "MEAN_MOTION": 14.09688751, "ECCENTRICITY": 0.0126432, "INCLINATION": 98.5634, "RA_OF_ASC_NODE": 249.6268, "ARG_OF_PERICENTER": 120.4011, "MEAN_ANOMALY": 240.9727, "EPHEMERIS_TYPE": 0, "CLASSIFICATION_TYPE": "U", "NORAD_CAT_ID": 33741, "ELEMENT_SET_NO": 999, "REV_AT_EPOCH": 56704, "BSTAR": 0.0023289671, "MEAN_MOTION_DOT": 4.361e-05, "MEAN_MOTION_DDOT": 0}, "tle": {"line1": "1 33741U 99025DJE 25335.48973385  .00004361  00000+0  23290-2 0  9999", "line2": "2 33741  98.5634 249.6268 0126432 120.4011 240.9727 14.09688751567041"}}, "geometry": {"type": "Point", "coordinates": [-97.85729997886511, -52.13656597057582]}}, {"type": "Feature", "properties": {"norad_id": 33745, "name": "FENGYUN 1C DEB", "group": "fengyun-1c-debris", "lat": -43.32748935322854, "lon": -174.97939209351384, "alt_km": 811.9080802383069, "timestamp": "2025-12-02T21:34:01.558221+00:00", "meta": {"OBJECT_NAME": "FENGYUN 1C DEB", "OBJECT_ID": "1999-025DJJ", "EPOCH": "2025-11-25T01:05:32.743968", "MEAN_MOTION": 14.22170506, "ECCENTRICITY": 0.00530671, "INCLINATION": 99.1146, "RA_OF_ASC_NODE": 5.6166, "ARG_OF_PERICENTER": 317.4724, "MEAN_ANOMALY": 42.2348, "EPHEMERIS_TYPE": 0, "CLASSIFICATION_TYPE": "U", "NORAD_CAT_ID": 33745, "ELEMENT_SET_NO": 999, "REV_AT_EPOCH": 65750, "BSTAR": 0.0015193996, "MEAN_MOTION_DOT": 3.37e-05, "MEAN_MOTION_DDOT": 0}, "tle": {"line1": "1 33745U 99025DJJ 25329.04551787  .00003370  00000+0  15194-2 0  9999", "line2": "2 33745  99.1146   5.6166 0053067 317.4724  42.2348 14.22170506657501"}}, "geometry": {"type": "Point", "coordinates": [-174.97939209351384, -43.32748935322854]}}]}